[{"OBJECT_NAME":"STARLINK-4502","OBJECT_ID":"2022-101AG","EPOCH":"2026-03-09T09:32:45.285504","MEAN_MOTION":15.08837837,"ECCENTRICITY":0.00013195,"INCLINATION":53.2171,"RA_OF_ASC_NODE":65.4309,"ARG_OF_PERICENTER":90.361,"MEAN_ANOMALY":269.7533,"EPHEMERIS_TYPE":0,"CLASSIFICATION_TYPE":"U","NORAD_CAT_ID":53557,"ELEMENT_SET_NO":999,"REV_AT_EPOCH":19691,"BSTAR":1.1913437e-5,"MEAN_MOTION_DOT":-9.8e-7,"MEAN_MOTION_DDOT":0},{"OBJECT_NAME":"IRIDIUM 33 DEB","OBJECT_ID":"1997-051PF","EPOCH":"2026-03-08T20:08:48.628608","MEAN_MOTION":15.0410284,"ECCENTRICITY":0.00301759,"INCLINATION":86.2075,"RA_OF_ASC_NODE":10.7469,"ARG_OF_PERICENTER":217.121,"MEAN_ANOMALY":142.7938,"EPHEMERIS_TYPE":0,"CLASSIFICATION_TYPE":"U","NORAD_CAT_ID":35080,"ELEMENT_SET_NO":999,"REV_AT_EPOCH":70973,"BSTAR":0.01054144,"MEAN_MOTION_DOT":0.00150308,"MEAN_MOTION_DDOT":0}]
